#dP2023 11  1  0  0  0.00000000      96 __u+U IGS20 FIT  IAC
## 2286 259200.00000000   900.00000000 60249 0.0000000000000
+  117   C06C07C08C09C10C11C12C13C14C16C19C20C21C22C23C24C25
+        C26C27C28C29C30C32C33C34C36C37C38C39C40C41C42C43C44
+        C45C46E02E03E04E05E07E08E09E10E11E12E13E15E19E21E24
+        E25E26E27E30E31E33E34E36G01G02G03G04G05G06G07G08G09
+        G10G11G12G13G14G15G16G17G18G19G20G21G22G23G24G25G26
+        G27G28G29G30G31G32J02J03J04R01R02R03R04R05R07R08R09
+        R11R12R13R14R15R16R17R18R19R20R21R22R24R25R26  0  0
++         7  7  7  7  7  7  7  7  6  7  6  6  6  6  6  6  6
++         6  5  5  6  6  6  5  6  6  6  6  6  6  5  6  6  6
++         6  6  5  4  4  4  4  4  4  4  4  4  4  4  4  4  4
++         4  4  4  5  4  4  4  4  4  4  3  3  3  4  3  3  3
++         3  4  3  3  3  3  3  3  3  4  3  3  3  3  3  4  4
++         3  4  3  3  4  4  0  9  9  8  6  6  6  7  7  7  7
++         7  6  7  6  6  6  7  6  7  8  7  6  7  7  8  0  0
%c M  cc GPS ccc cccc cccc cccc cccc ccccc ccccc ccccc ccccc
%c cc cc ccc ccc cccc cccc cccc cccc ccccc ccccc ccccc ccccc
%f  1.2500000  1.025000000  0.00000000000  0.000000000000000
%f  0.0000000  0.000000000  0.00000000000  0.000000000000000
%i    0    0    0    0      0      0      0      0         0
%i    0    0    0    0      0      0      0      0         0
/* INFORMATION & ANALYSIS CENTER (IAC)            FINAL DATA
/* S/V CLOCKS ARE ALIGNED TO GNSS TIME                      
/* G:C1WC2W R:C1PC2P E:C1XC5X C:C2IC6I J:C1CC2S             
/* PCV:IGS20_2280 OL/AL:FES2004  NONE     YN ORB:CoN CLK:CoN
*  2023 11 01 16 45  0.00000000
PC06   -904.439216  33925.749939 -24795.428491     80.190741
PC07 -14675.605432  27147.867765  28752.463853   -250.504593
PC08 -16120.131740  38584.877301  -6273.249203    264.869985
PC09   5258.444736  37354.524072 -17804.435198    -33.551340
PC10  -4589.527303  27966.219548  31474.531530     -1.639027
PC11  22208.651102  15021.244293  -7709.063567    233.943078
PC12  12973.751179  22412.225382  10463.274482    875.011198
PC13 -11116.476506  39106.791719 -11584.370385    376.366804
PC14  23099.441448   3755.881305 -15233.168437    699.645766
PC16  -4184.828325  31069.427750 -27801.630358   -154.177267
PC19 -26780.373611   3110.090065   7188.188636   -974.419314
PC20 -17118.016133  -9014.522043  20104.198256    154.000830
PC21  -3803.027424  16754.491617 -21981.640961   -969.071683
PC22 -21568.380686  14131.645385 -10659.588017   -242.562292
PC23  14727.540825 -19205.853944  13886.336560   -830.806803
PC24   8813.273563  19444.874882  17972.329206    553.376920
PC25  16652.475567  -1166.360303  22348.925032    245.949908
PC26  -2935.391253  27514.788394   3747.792287   -200.063936
PC27  -5439.048096 -21514.931089 -16937.771085    221.909620
PC28  10597.247005 -11965.722433 -22865.627463    167.251225
PC29 -22708.992818  -5846.251524  15125.392618    195.595794
PC30 -19834.717834 -19519.134896  -2203.505658     -7.535195
PC32   3825.656971 -16823.022761  21941.086234   -532.359094
PC33  26756.328501  -3207.141122  -7275.948864   -948.175044
PC34  20540.500246  18862.063654    767.821150    293.952518
PC36 -16536.523140   -172.224013 -22458.869860   -153.384728
PC37   4040.473276 -27424.806533  -3064.538520   -871.885489
PC38 -19593.313410  37384.016116   2215.591581    114.936400
PC39  -6686.736890  27980.668364 -30709.371200     -5.482709
PC40 -20670.654813  20491.410216  30434.846772    -42.332464
PC41  22015.563981 -13959.978165  10009.882086   -871.584175
PC42  15802.927401   9896.410735 -20734.227562   -508.468879
PC43  22953.972136   6607.163291 -14421.356108     46.450498
PC44   5994.805215  21305.430485  16972.566046    279.618578
PC45 -14488.213930  19685.365370 -13494.171192    -41.938353
PC46  -9418.158927 -18392.937308 -18739.908985    -96.395609
PE02 -21934.408873   2236.931670 -19760.416385     74.842381
PE03 -28847.625272  -5765.954205  -3249.746549    -70.142313
PE04  20952.661217  -8125.967881  19262.234556   -247.647200
PE05 -19988.779663 -16254.481928  14571.023499     33.188678
PE07  -1132.980314  17211.637531 -24058.592872    -85.495006
PE08 -21330.264546   7698.135565 -19028.533109   -170.389690
PE09   1255.481109 -17033.889604  24167.931242   -212.318476
PE10   6179.267386 -22623.154523 -18053.226521   -575.597241
PE11   -883.745359 -28090.347838  -9301.760192   3161.636808
PE12  11754.056166 -14355.056910 -23063.869338   -759.720020
PE13    451.739699  27861.915049   9996.247896    -19.612157
PE15 -11912.207195  13858.942414  23295.317197    -65.972278
PE19  28600.443211   7568.233005    866.733454  -1303.791210
PE21   8909.159805  14537.786942  24198.131311   -561.884190
PE24  10390.141853 -23711.223373 -14342.424369   -407.937903
PE25  -8578.708356 -14806.151519 -24145.123436     -3.765557
PE26  12722.213976  24970.934781  -9536.597199    268.375340
PE27  -9899.905629  23682.896428  14755.588940   -189.162461
PE30 -22855.401711  18474.017249  -3619.502578   -627.235969
PE31  22659.220826 -18756.535094   3285.155133     -9.168691
PE33  17124.201397   8739.801676 -22504.464763      1.465958
PE34 -17136.915550  -8002.815808  22764.384400    -75.591262
PE36 -12371.465175 -25355.873583   8960.344219   -138.058241
PG01 -14480.735509   1071.812631  21913.467479    163.273093
PG02 -16647.890334  -4879.490715  20671.277806   -534.587133
PG03 -21579.822846   9771.192670  11752.455038    -42.384457
PG04 -23904.304478    709.393691 -11682.784387    200.949324
PG05  16838.276481   2783.447320 -20557.214563   -148.742693
PG06   5806.115947  25864.126836    350.714337    516.880734
PG07  -7551.289690  18755.077484 -16496.056882     24.790567
PG08 -26194.452122  -5040.659806   2353.810033   -150.042516
PG09 -16635.448778   9205.118748 -18659.520723    -15.585084
PG10   6323.131522 -20536.946789  15575.556962    -59.683965
PG11  12048.397772  20772.648650 -11385.406262   -441.367734
PG12  22004.133310  -6654.869364  12965.445139   -442.320771
PG13  22263.253092  13843.217800  -5129.580555    590.566728
PG14  -9903.357064  21139.569447  12527.948984    230.958041
PG15  26444.975603   1624.492964   2682.403855     92.878625
PG16 -12816.531274  -9091.914341 -21776.375256   -429.467488
PG17  -1478.115314  15423.914794  21997.380201    723.558253
PG18   6447.470398 -20221.860108 -15839.446354   -466.527951
PG19   8508.158979  17092.240082  18414.390722    393.001285
PG20   8447.144842  13834.987223 -21023.433732    403.825216
PG21 -17134.832097  -9175.336622  19004.058270    145.366905
PG22  -4225.060029  19502.619486  18117.356325     91.900934
PG23  16127.923952 -20537.939436   4289.243421     91.868832
PG24  16834.199882   3561.579570  19937.965198   -360.852793
PG25  19807.767856 -17271.898063   2312.106961    475.458204
PG26  -5154.482504 -16586.426071 -20136.190728    219.530001
PG27 -21199.537717 -13176.168297  -9922.741054    -63.819750
PG28  -5581.545404 -25858.014157   2365.632235    -36.954071
PG29  17448.244842  -7106.814251 -18807.278585   -610.230693
PG30   -540.256419  24936.593509  -8615.972076   -472.735682
PG31 -10235.996640 -23310.868099  -6959.383845   -225.300343
PG32  -3933.938542 -16258.647882  20856.409434   -580.430724
PJ02      0.000000      0.000000      0.000000 999999.999999
PJ03 -25604.306017  23803.567855  28703.199132     -6.830068
PJ04 -33491.419519  22194.729811  -7696.639175     71.811261
PR01 -15483.247760  -6964.480546  19029.853353     68.887991
PR02 -25217.384628    750.249852   4057.506839    -22.355108
PR03 -20269.503069   8481.377858 -12975.262537     88.197937
PR04  -4396.337360  11010.002294 -22566.254631    209.283980
PR05  13830.974699   7865.935664 -19921.807504    121.554537
PR07  19567.365888  -8766.867238  13805.225580     68.159802
PR08   4008.892201 -11173.818500  22624.139079    -73.149755
PR09  12962.621932  -3467.042619  21727.214103    150.858014
PR11   7242.114538 -23884.490114  -5298.087098   -210.156819
PR12  -4400.331979 -14614.492882 -20408.892609     32.976500
PR13 -12085.455656   1026.555309 -22454.244484    -40.816245
PR14 -13475.579599  18844.355587 -10644.701903     25.497962
PR15  -6628.222020  23706.125989   6701.823326     84.980840
PR16   4217.978455  14770.351526  20362.992458     20.225291
PR17  -7472.241299   7684.232570  23162.986357     31.010810
PR18   4675.717158  19112.438633  16229.502587    109.799110
PR19  13240.134610  21673.209550   2450.225011   -253.071392
PR20  15951.833065  10194.070592 -17064.747013   -102.781546
PR21   6987.950253  -8177.710414 -23120.170634    -50.069428
PR22  -4636.825174 -19872.200161 -15279.814542     91.465083
PR24 -16494.135669  -8834.949685  17347.306681    -30.483580
PR25   8084.429834  -7466.386015 -23001.443953     -6.512684
PR26   4629.645858 -11197.987350  22462.757477    -18.475459
EOF
